CCSDS_OMM_VERS,COMMENT,CREATION_DATE,ORIGINATOR,OBJECT_NAME,OBJECT_ID,CENTER_NAME,REF_FRAME,TIME_SYSTEM,MEAN_ELEMENT_THEORY,EPOCH,MEAN_MOTION,ECCENTRICITY,INCLINATION,RA_OF_ASC_NODE,ARG_OF_PERICENTER,MEAN_ANOMALY,EPHEMERIS_TYPE,CLASSIFICATION_TYPE,NORAD_CAT_ID,ELEMENT_SET_NO,REV_AT_EPOCH,BSTAR,MEAN_MOTION_DOT,MEAN_MOTION_DDOT,SEMIMAJOR_AXIS,PERIOD,APOAPSIS,PERIAPSIS,OBJECT_TYPE,RCS_SIZE,COUNTRY_CODE,LAUNCH_DATE,SITE,DECAY_DATE,FILE,GP_ID,TLE_LINE0,TLE_LINE1,TLE_LINE2
2,GENERATED VIA SPACE-TRACK.ORG API,2023-06-28T14:26:12,18 SPCS,KSF3-C,2023-001K,EARTH,TEME,UTC,SGP4,2023-06-28T09:16:10.139808,15.17180842,0.0009232,97.4764,238.7846,343.0313,17.0611,0,U,55018,999,2676,0.00058544,0.00011582,0,6892.503,94.913,520.731,508.004,PAYLOAD,MEDIUM,LUXE,2023-01-03,AFETR,,3944870,234603264,0 KSF3-C,1 55018U 23001K   23179.38622847  .00011582  00000-0  58544-3 0  9993,2 55018  97.4764 238.7846 0009232 343.0313  17.0611 15.17180842 26763
2,GENERATED VIA SPACE-TRACK.ORG API,2023-06-28T22:26:12,18 SPCS,KSF3-C,2023-001K,EARTH,TEME,UTC,SGP4,2023-06-28T17:11:02.027616,15.17188678,0.0009207,97.4766,239.11,341.8064,18.2839,0,U,55018,999,2681,0.00057736,0.00011423,0,6892.479,94.912,520.69,507.998,PAYLOAD,MEDIUM,LUXE,2023-01-03,AFETR,,3945108,234609080,0 KSF3-C,1 55018U 23001K   23179.71599569  .00011423  00000-0  57736-3 0  9990,2 55018  97.4766 239.1100 0009207 341.8064  18.2839 15.17188678 26810
2,GENERATED VIA SPACE-TRACK.ORG API,2023-06-29T06:36:13,18 SPCS,KSF3-C,2023-001K,EARTH,TEME,UTC,SGP4,2023-06-29T02:40:52.112064,15.1719693,0.0009159,97.4767,239.5004,340.3442,19.7437,0,U,55018,999,2687,0.00054338,0.00010749,0,6892.454,94.912,520.632,508.006,PAYLOAD,MEDIUM,LUXE,2023-01-03,AFETR,,3945346,234614745,0 KSF3-C,1 55018U 23001K   23180.11171426  .00010749  00000-0  54338-3 0  9999,2 55018  97.4767 239.5004 0009159 340.3442  19.7437 15.17196930 26874
2,GENERATED VIA SPACE-TRACK.ORG API,2023-06-29T14:26:13,18 SPCS,KSF3-C,2023-001K,EARTH,TEME,UTC,SGP4,2023-06-29T10:35:43.697472,15.17203835,0.0009129,97.4768,239.8258,339.1784,20.9076,0,U,55018,999,2692,0.00054376,0.00010758,0,6892.433,94.911,520.59,508.006,PAYLOAD,MEDIUM,LUXE,2023-01-03,AFETR,,3945619,234621378,0 KSF3-C,1 55018U 23001K   23180.44147798  .00010758  00000-0  54376-3 0  9992,2 55018  97.4768 239.8258 0009129 339.1784  20.9076 15.17203835 26923
2,GENERATED VIA SPACE-TRACK.ORG API,2023-06-29T22:26:13,18 SPCS,KSF3-C,2023-001K,EARTH,TEME,UTC,SGP4,2023-06-29T18:30:35.134272,15.17211847,0.000909,97.4768,240.1512,338.0209,22.0633,0,U,55018,999,2697,0.00054655,0.00010816,0,6892.409,94.911,520.539,508.009,PAYLOAD,MEDIUM,LUXE,2023-01-03,AFETR,,3945858,234627655,0 KSF3-C,1 55018U 23001K   23180.77123998  .00010816  00000-0  54655-3 0  9999,2 55018  97.4768 240.1512 0009090 338.0209  22.0633 15.17211847 26977
2,GENERATED VIA SPACE-TRACK.ORG API,2023-06-30T22:36:13,18 SPCS,KSF3-C,2023-001K,EARTH,TEME,UTC,SGP4,2023-06-30T15:05:12.196032,15.17231128,0.0008994,97.4769,240.9973,335.0286,25.0511,0,U,55018,999,2710,0.00050939,0.00010081,0,6892.35,94.91,520.414,508.016,PAYLOAD,MEDIUM,LUXE,2023-01-03,AFETR,,3946129,234635072,0 KSF3-C,1 55018U 23001K   23181.62861338  .00010081  00000-0  50939-3 0  9996,2 55018  97.4769 240.9973 0008994 335.0286  25.0511 15.17231128 27109
2,GENERATED VIA SPACE-TRACK.ORG API,2023-07-01T06:46:12,18 SPCS,KSF3-C,2023-001K,EARTH,TEME,UTC,SGP4,2023-07-01T02:09:59.477472,15.17240302,0.0008939,97.4769,241.453,333.3387,26.7385,0,U,55018,999,2717,0.00046125,9.123e-05,0,6892.323,94.909,520.349,508.027,PAYLOAD,MEDIUM,LUXE,2023-01-03,AFETR,,3946429,234642389,0 KSF3-C,1 55018U 23001K   23182.09027173  .00009123  00000-0  46125-3 0  9996,2 55018  97.4769 241.4530 0008939 333.3387  26.7385 15.17240302 27174
2,GENERATED VIA SPACE-TRACK.ORG API,2023-07-01T14:36:13,18 SPCS,KSF3-C,2023-001K,EARTH,TEME,UTC,SGP4,2023-07-01T08:29:52.111104,15.17244124,0.0008937,97.4768,241.7133,332.2008,27.8746,0,U,55018,999,2721,0.0004418,8.736e-05,0,6892.311,94.909,520.336,508.016,PAYLOAD,MEDIUM,LUXE,2023-01-03,AFETR,,3946750,234649906,0 KSF3-C,1 55018U 23001K   23182.35407536  .00008736  00000-0  44180-3 0  9998,2 55018  97.4768 241.7133 0008937 332.2008  27.8746 15.17244124 27215
2,GENERATED VIA SPACE-TRACK.ORG API,2023-07-01T22:26:12,18 SPCS,KSF3-C,2023-001K,EARTH,TEME,UTC,SGP4,2023-07-01T17:59:40.934976,15.17251345,0.0008913,97.4767,242.1039,330.5478,29.5252,0,U,55018,999,2727,0.00042489,8.4e-05,0,6892.289,94.908,520.297,508.011,PAYLOAD,MEDIUM,LUXE,2023-01-03,AFETR,,3946984,234655799,0 KSF3-C,1 55018U 23001K   23182.74977934  .00008400  00000-0  42489-3 0  9993,2 55018  97.4767 242.1039 0008913 330.5478  29.5252 15.17251345 27270
2,GENERATED VIA SPACE-TRACK.ORG API,2023-07-02T06:26:12,18 SPCS,KSF3-C,2023-001K,EARTH,TEME,UTC,SGP4,2023-07-02T01:54:31.512096,15.17257098,0.0008895,97.4765,242.4293,329.1632,30.9078,0,U,55018,999,2732,0.00042617,8.427e-05,0,6892.272,94.908,520.267,508.006,PAYLOAD,MEDIUM,LUXE,2023-01-03,AFETR,,3947276,234662809,0 KSF3-C,1 55018U 23001K   23183.07953139  .00008427  00000-0  42617-3 0  9993,2 55018  97.4765 242.4293 0008895 329.1632  30.9078 15.17257098 27327
2,GENERATED VIA SPACE-TRACK.ORG API,2023-07-02T14:36:12,18 SPCS,KSF3-C,2023-001K,EARTH,TEME,UTC,SGP4,2023-07-02T09:49:21.987264,15.17261831,0.0008883,97.4765,242.7548,327.8444,32.2247,0,U,55018,999,2737,0.00039459,7.798e-05,0,6892.257,94.908,520.245,508.0,PAYLOAD,MEDIUM,LUXE,2023-01-03,AFETR,,3947601,234670084,0 KSF3-C,1 55018U 23001K   23183.40928226  .00007798  00000-0  39459-3 0  9999,2 55018  97.4765 242.7548 0008883 327.8444  32.2247 15.17261831 27374
2,GENERATED VIA SPACE-TRACK.ORG API,2023-07-02T22:26:13,18 SPCS,KSF3-C,2023-001K,EARTH,TEME,UTC,SGP4,2023-07-02T14:34:16.218624,15.17266373,0.0008877,97.4764,242.9501,327.0003,33.0675,0,U,55018,999,2740,0.00042745,8.455e-05,0,6892.244,94.908,520.227,507.99,PAYLOAD,MEDIUM,LUXE,2023-01-03,AFETR,,3947812,234676121,0 KSF3-C,1 55018U 23001K   23183.60713216  .00008455  00000-0  42745-3 0  9995,2 55018  97.4764 242.9501 0008877 327.0003  33.0675 15.17266373 27404
2,GENERATED VIA SPACE-TRACK.ORG API,2023-07-03T06:36:13,18 SPCS,KSF3-C,2023-001K,EARTH,TEME,UTC,SGP4,2023-07-03T03:14:00.684960,15.17274828,0.0008859,97.4762,243.4708,324.7811,35.2836,0,U,55018,999,2748,0.00042962,8.5e-05,0,6892.218,94.907,520.189,507.977,PAYLOAD,MEDIUM,LUXE,2023-01-03,AFETR,,3948007,234681002,0 KSF3-C,1 55018U 23001K   23184.13473015  .00008500  00000-0  42962-3 0  9996,2 55018  97.4762 243.4708 0008859 324.7811  35.2836 15.17274828 27483
2,GENERATED VIA SPACE-TRACK.ORG API,2023-07-03T14:36:12,18 SPCS,KSF3-C,2023-001K,EARTH,TEME,UTC,SGP4,2023-07-03T11:08:50.834400,15.17280186,0.0008837,97.4761,243.7963,323.3794,36.6834,0,U,55018,999,2753,0.00042847,8.478e-05,0,6892.202,94.907,520.157,507.976,PAYLOAD,MEDIUM,LUXE,2023-01-03,AFETR,,3948312,234689043,0 KSF3-C,1 55018U 23001K   23184.46447725  .00008478  00000-0  42847-3 0  9997,2 55018  97.4761 243.7963 0008837 323.3794  36.6834 15.17280186 27532
2,GENERATED VIA SPACE-TRACK.ORG API,2023-07-03T22:26:12,18 SPCS,KSF3-C,2023-001K,EARTH,TEME,UTC,SGP4,2023-07-03T17:28:42.877056,15.17285085,0.0008827,97.476,244.0566,322.2831,37.7783,0,U,55018,999,2757,0.00044015,8.713e-05,0,6892.187,94.906,520.136,507.968,PAYLOAD,MEDIUM,LUXE,2023-01-03,AFETR,,3948724,234696071,0 KSF3-C,1 55018U 23001K   23184.72827404  .00008713  00000-0  44015-3 0  9993,2 55018  97.4760 244.0566 0008827 322.2831  37.7783 15.17285085 27575
2,GENERATED VIA SPACE-TRACK.ORG API,2023-07-04T06:36:13,18 SPCS,KSF3-C,2023-001K,EARTH,TEME,UTC,SGP4,2023-07-04T02:58:30.789408,15.17293081,0.0008818,97.4759,244.4473,320.5557,39.5033,0,U,55018,999,2763,0.00047496,9.41e-05,0,6892.163,94.906,520.105,507.95,PAYLOAD,MEDIUM,LUXE,2023-01-03,AFETR,,3949035,234702318,0 KSF3-C,1 55018U 23001K   23185.12396747  .00009410  00000-0  47496-3 0  9990,2 55018  97.4759 244.4473 0008818 320.5557  39.5033 15.17293081 27630
2,GENERATED VIA SPACE-TRACK.ORG API,2023-07-04T14:26:12,18 SPCS,KSF3-C,2023-001K,EARTH,TEME,UTC,SGP4,2023-07-04T10:53:20.588064,15.17299944,0.0008795,97.4758,244.7727,319.199,40.8584,0,U,55018,999,2768,0.00050367,9.986e-05,0,6892.142,94.905,520.069,507.945,PAYLOAD,MEDIUM,LUXE,2023-01-03,AFETR,,3949245,234709057,0 KSF3-C,1 55018U 23001K   23185.45371051  .00009986  00000-0  50367-3 0  9996,2 55018  97.4758 244.7727 0008795 319.1990  40.8584 15.17299944 27688
2,GENERATED VIA SPACE-TRACK.ORG API,2023-07-04T22:36:12,18 SPCS,KSF3-C,2023-001K,EARTH,TEME,UTC,SGP4,2023-07-04T15:38:14.404704,15.17304354,0.0008784,97.4758,244.9681,318.3842,41.6722,0,U,55018,999,2771,0.00051802,0.00010274,0,6892.129,94.905,520.048,507.94,PAYLOAD,MEDIUM,LUXE,2023-01-03,AFETR,,3949530,234716012,0 KSF3-C,1 55018U 23001K   23185.65155561  .00010274  00000-0  51802-3 0  9991,2 55018  97.4758 244.9681 0008784 318.3842  41.6722 15.17304354 27713
2,GENERATED VIA SPACE-TRACK.ORG API,2023-07-05T06:36:13,18 SPCS,KSF3-C,2023-001K,EARTH,TEME,UTC,SGP4,2023-07-04T23:33:04.010688,15.17310613,0.0008758,97.4757,245.2936,317.1138,42.9411,0,U,55018,999,2776,0.00052154,0.00010346,0,6892.11,94.905,520.011,507.939,PAYLOAD,MEDIUM,LUXE,2023-01-03,AFETR,,3949761,234722001,0 KSF3-C,1 55018U 23001K   23185.98129642  .00010346  00000-0  52154-3 0  9999,2 55018  97.4757 245.2936 0008758 317.1138  42.9411 15.17310613 27764
2,GENERATED VIA SPACE-TRACK.ORG API,2023-07-05T14:36:13,18 SPCS,KSF3-C,2023-001K,EARTH,TEME,UTC,SGP4,2023-07-05T10:37:49.263456,15.17318222,0.0008724,97.4757,245.7493,315.3368,44.7161,0,U,55018,999,2783,0.00047199,9.357e-05,0,6892.087,94.904,519.964,507.939,PAYLOAD,MEDIUM,LUXE,2023-01-03,AFETR,,3950051,234728543,0 KSF3-C,1 55018U 23001K   23186.44293129  .00009357  00000-0  47199-3 0  9996,2 55018  97.4757 245.7493 0008724 315.3368  44.7161 15.17318222 27839
